00969   12.76  0.15 K2555 298.65173   91.31406  287.68683    2.29063  0.2052873  0.25496990   2.4630701  0 E2025-L08  4541  38 1921-2025 0.67 M-v 3Ek MPCLINUX   0000    (969) Leocadia           20250601
00970   12.28  0.15 K2555  90.95328   95.49246  310.71880    5.03464  0.2726614  0.24087743   2.5582244  0 E2025-KE2  4481  40 1921-2025 0.68 M-v 3Ek MPCLINUX   0000    (970) Primula            20250529
00971   10.08  0.15 K2555   9.93826    6.13543   83.47512   13.79558  0.1638163  0.22971892   2.6404111  0 E2025-H06  4724  42 1908-2025 0.70 M-v 3Ek MPCLINUX   0000    (971) Alsatia            20250416
00972    9.67  0.15 K2555 165.23528   93.25793  281.42385    8.36912  0.2351067  0.18446919   3.0562355  0 E2025-L08  6834  47 1906-2025 0.57 M-v 3Ek MPCLINUX   0000    (972) Cohnia             20250601
00973   10.21  0.15 K2555  13.16196   86.85862  348.33870   15.81949  0.1139484  0.17106479   3.2138748  0 E2025-G97  8309  52 1922-2025 0.49 M-v 3Ek MPCLINUX   0000    (973) Aralia             20250407
00974   10.67  0.15 K2555 327.40965  302.49066   86.62876    5.45321  0.1095727  0.24441505   2.5334796  0 E2025-KC9  9198  53 1906-2025 0.49 M-v 3Ek MPCLINUX   0000    (974) Lioba              20250528
00975   10.60  0.15 K2555 304.67481   58.41016   38.65889    2.55506  0.0346429  0.20673662   2.8326382  0 MPO901175 10743  53 1922-2025 0.47 M-v 3Ek MPCLINUX   0000    (975) Perseverantia      20250130
00976    9.43  0.15 K2555 352.35343  321.74787  242.99483    7.72706  0.1101308  0.17286054   3.1915781  0 E2025-L08  7487  54 1910-2025 0.60 M-v 3Ek MPCLINUX   0000    (976) Benjamina          20250601
00977    9.89  0.15 K2555 324.42421   65.66962   75.66492   15.18088  0.0219708  0.17865331   3.1222092  0 E2025-H06  6040  45 1914-2025 0.59 M-v 3Ek MPCLINUX   0000    (977) Philippa           20250416
00978    9.65  0.15 K2555 275.51106  132.70893  216.51866   21.60266  0.2302540  0.17165581   3.2064935  0 E2025-L08  7159  41 1906-2025 0.58 M-v 3Ek MPCLINUX   0000    (978) Aidamina           20250601
00979    9.84  0.15 K2555  78.69484  116.42801  230.56900   10.10661  0.1398987  0.17536000   3.1611785  0 E2025-HJ5  7670  46 1922-2025 0.54 M-v 3Ek MPCLINUX   0000    (979) Ilsewa             20250328
00980    7.88  0.15 K2555 293.28836   69.75287  285.76210   15.89589  0.2016946  0.21711113   2.7416667  0 E2025-L03  3679  52 1929-2025 0.70 M-v 3Ek MPCLINUX   0000    (980) Anacostia          20250531
00981   11.12  0.15 K2555 275.01841  297.91067   46.00391    2.06214  0.2008715  0.18064801   3.0991832  0 E2025-L08  8839  47 1906-2025 0.53 M-v 3Ek MPCLINUX   0000    (981) Martina            20250601
00982   10.06  0.15 K2555   5.62321  350.76825  299.13464   13.64747  0.2329773  0.18325256   3.0697477  0 E2025-L08  6959  43 1928-2025 0.55 M-v 3Ek MPCLINUX   0000    (982) Franklina          20250601
00983    9.54  0.15 K2555 165.22641  348.44431  250.66374   14.86891  0.0899765  0.17546387   3.1599309  0 E2025-HJ5  9063  49 1922-2025 0.50 M-v 3Ek MPCLINUX   0000    (983) Gunila             20250219
00984    9.56  0.15 K2555 293.20293   55.28630  314.12819    9.09299  0.1949412  0.20972745   2.8056438  0 E2025-L03  7493  51 1915-2025 0.54 M-v 3Ek MPCLINUX   0000    (984) Gretia             20250531
00985   12.79  0.15 K2555 164.19509   59.61618  290.23739    4.05920  0.2776900  0.28275845   2.2989295  0 E2025-KE2  5086  30 1922-2025 0.63 M-v 3Ek MPCLINUX   0005    (985) Rosina             20250529
00986    9.37  0.15 K2555 171.53532  264.95397   92.50263   14.81665  0.2031053  0.17788296   3.1312169  0 E2025-L08  5843  45 1926-2025 0.61 M-v 3Ek MPCLINUX   0000    (986) Amelia             20250601
00987    9.64  0.15 K2555 170.01893   15.74739  322.53533    8.91028  0.2379318  0.17758926   3.1346682  0 E2025-KC9  7209  50 1922-2025 0.55 M-v 3Ek MPCLINUX   0000    (987) Wallia             20250528
00988   11.62  0.15 K2555 120.38890  336.57450   41.68777    1.57334  0.2373324  0.17723794   3.1388092  0 E2025-KB8  5445  37 1939-2025 0.68 M-v 3Ek MPCLINUX   0000    (988) Appella            20250527
00989   11.83  0.15 K2555 223.73647  165.66252  243.30002   14.69036  0.2494038  0.22696648   2.6617151  0 E2025-L08  4638  35 1922-2025 0.61 M-v 3Ek MPCLINUX   0000    (989) Schwassmannia      20250602
00990   11.95  0.15 K2555 220.79734    9.30274  353.93416    8.78382  0.2173836  0.22611672   2.6683795  0 E2025-L08  7618  43 1913-2025 0.55 M-v 3Ek MPCLINUX   0000    (990) Yerkes             20250531
00991   11.19  0.15 K2555 199.20630  253.55477   63.18152    2.06929  0.1623831  0.17751530   3.1355389  0 E2025-KB8  5411  45 1936-2025 0.69 M-v 3Ek MPCLINUX   0000    (991) McDonalda          20250527
00992   10.53  0.15 K2555   8.42316  348.78940  211.86365   10.89156  0.0903235  0.18740856   3.0241948  0 E2025-L08  5654  45 1922-2025 0.66 M-v 3Ek MPCLINUX   0000    (992) Swasey             20250601
00993   11.43  0.15 K2555  86.55038  244.63896  184.20676    1.78204  0.0471381  0.20375508   2.8602045  0 E2025-KE2  5585  47 1931-2025 0.67 M-v 3Ek MPCLINUX   0000    (993) Moultona           20250529
00994   10.21  0.15 K2555 335.56228  342.12067    2.29915   15.41468  0.1153278  0.24493756   2.5298753  0 E2025-L08  6869  42 1931-2025 0.56 M-v 3Ek MPCLINUX   0000    (994) Otthild            20250601
00995   10.14  0.15 K2555 332.15791  122.14031  221.66290   13.05165  0.1675526  0.23295637   2.6158911  0 E2025-L08  4931  43 1903-2025 0.66 M-v 3Ek MPCLINUX   0000    (995) Sternberga         20250601
00996   11.17  0.15 K2555 316.36434  145.80907  347.21149    0.65723  0.1392421  0.18117926   3.0931221  0 E2025-HB2  5221  50 1928-2025 0.67 M-v 3Ek MPCLINUX   0000    (996) Hilaritas          20250324
00997   12.49  0.15 K2555 119.36193   51.84780  247.06285   10.50406  0.1816734  0.22568893   2.6717504  0 MPO901175  4155  32 1923-2025 0.67 M-v 3Ek MPCLINUX   0000    (997) Priska             20250308
00998   11.59  0.15 K2555 123.89836   71.66405  301.08081   15.51390  0.2144831  0.17929679   3.1147346  0 E2025-KB8  4881  32 1923-2025 0.58 M-v 3Ek MPCLINUX   0000    (998) Bodea              20250527
00999   10.91  0.15 K2555  19.26611  127.93342  214.89407    9.75637  0.2157689  0.23344970   2.6122044  0 MPO887301  5419  49 1923-2024 0.62 M-v 3Ek MPCLINUX   0000    (999) Zachia             20241110
01000   10.60  0.15 K2555  12.74693  280.35855  323.70757   20.58110  0.2583014  0.17447298   3.1718838  0 E2025-KE2  5503  42 1923-2025 0.58 M-v 3Ek MPCLINUX   0000   (1000) Piazzia            20250531
01001    9.85  0.15 K2555 236.44295  146.24931  259.09551    9.31628  0.1220333  0.17118993   3.2123084  0 E2025-L08  6778  55 1908-2025 0.61 M-v 3Ek MPCLINUX   0000   (1001) Gaussia            20250602
01002   11.13  0.15 K2555 298.56832  354.85120  343.69750   10.76929  0.1533854  0.21172562   2.7879636  0 E2025-L08  8733  46 1935-2025 0.51 M-v 3Ek MPCLINUX   0000   (1002) Olbersia           20250531
01003   10.77  0.15 K2555 348.45143  316.36659  139.40539    1.84054  0.1611511  0.17694567   3.1422646  0 MPO901175  5100  55 1915-2025 0.67 M-v 3Ek MPCLINUX   0000   (1003) Lilofee            20250310
01004    9.78  0.15 K2555  73.65753  215.40644  153.25791    2.98033  0.0931977  0.15655149   3.4095567  0 E2025-H06  5461  60 1923-2025 0.66 M-v 3Ek MPCLINUX   0000   (1004) Belopolskya        20250416
01005   10.11  0.15 K2555 335.99040   61.03375  349.11876   19.06421  0.1197941  0.17518984   3.1632251  0 MPO887301  7891  40 1923-2024 0.51 M-v 3Ek MPCLINUX   0000   (1005) Arago              20241228
01006   11.44  0.15 K2555  58.78257   86.26845  294.51840   10.92894  0.3591778  0.17719767   3.1392847  0 E2025-K06  5729  38 1923-2025 0.60 M-v 3Ek MPCLINUX   0000   (1006) Lagrangea          20250516
01007   11.42  0.15 K2555 284.85512   77.07346  307.03775    2.54124  0.1089091  0.22111542   2.7084659  0 E2025-L08  7829  48 1923-2025 0.56 M-v 3Ek MPCLINUX   0000   (1007) Pawlowia           20250601
01008   10.89  0.15 K2555 216.93437   16.15102   20.20632    8.92889  0.0724903  0.18101152   3.0950327  0 E2025-L03  9685  46 1923-2025 0.48 M-v 3Ek MPCLINUX   0000   (1008) La Paz             20250601
01009   14.20  0.15 K2555 299.14550  186.62691  229.27305   15.71570  0.4529512  0.23127385   2.6285629  0 E2025-L08  7455  29 1923-2025 0.38 M-v 3Ek MPCLINUX   0005   (1009) Sirene             20250601
01010   10.69  0.15 K2555  96.77270  278.85003   98.68065    3.91045  0.1065857  0.19652011   2.9299804  0 E2025-K84  5436  53 1903-2025 0.64 M-v 3Ek MPCLINUX   0000   (1010) Marlene            20250524
01011   12.68  0.15 K2555 113.63662  353.23585  132.44974    5.48853  0.3486348  0.26589719   2.3951178  0 E2025-L08  4287  43 1924-2025 0.66 M-v 3Ek MPCLINUX   0005   (1011) Laodamia           20250601
01012   12.60  0.15 K2555 341.53188   25.47726   73.15069    4.02929  0.1367279  0.25241739   2.4796470  0 E2025-HB2  9749  37 1907-2025 0.49 M-v 3Ek MPCLINUX   0000   (1012) Sarema             20250301
01013   10.19  0.15 K2555   3.74937   99.21740   27.20268   11.89060  0.2082732  0.22412776   2.6841428  0 E2025-KC9  4604  40 1905-2025 0.67 M-v 3Ek MPCLINUX   0000   (1013) Tombecka           20250528
01014   11.97  0.15 K2555 199.45570  234.60214  251.46173    2.26543  0.2043467  0.21045581   2.7991668  0 E2025-L08  4389  43 1924-2025 0.71 M-v 3Ek MPCLINUX   0000   (1014) Semphyra           20250601
01015    9.45  0.15 K2555 317.80849  287.28303  120.11653    9.44850  0.0890330  0.17188400   3.2036551  0 E2025-KC9 13035  52 1924-2025 0.45 M-v 3Ek MPCLINUX   0000   (1015) Christa            20250528
01016   11.89  0.15 K2555 290.69584   53.32343    8.80112    6.03534  0.1274610  0.29811706   2.2192769  0 E2025-KC9  4326  43 1924-2025 0.67 M-v 3Ek MPCLINUX   0000   (1016) Anitra             20250528
01017   11.07  0.15 K2555 352.32412   70.42206  118.74201    7.92807  0.0763459  0.23435673   2.6054601  0 E2025-L03  5697  42 1928-2025 0.65 M-v 3Ek MPCLINUX   0000   (1017) Jacqueline         20250531
